STARLINK-3157_new
1 19413C 21104F   21326.14846278 -.00825435  00000-0 -31060-2 0  3268
2 19413  53.2177  90.8331 0024745  65.5258 234.4652 15.87371415    14
STARLINK-3157_old
1 29413C 21104F   21325.19167069 -.00830074  00000-0 -28149-2 0  3254
2 29413  53.2175  95.6743 0032495  64.2255 161.8348 15.89060439    14
